{
    "links": {
        "self": "http://www.neowsapp.com/rest/v1/neo/54016444?api_key=iIulBulltgU6a56xZRHN4H3l9WmuAYTsLGpBGhQ2"
    },
    "id": "54016444",
    "neo_reference_id": "54016444",
    "name": "(2020 GM)",
    "designation": "2020 GM",
    "nasa_jpl_url": "http://ssd.jpl.nasa.gov/sbdb.cgi?sstr=54016444",
    "absolute_magnitude_h": 26.536,
    "estimated_diameter": {
        "kilometers": {
            "estimated_diameter_min": 0.0131025244,
            "estimated_diameter_max": 0.0292981352
        },
        "meters": {
            "estimated_diameter_min": 13.1025243841,
            "estimated_diameter_max": 29.2981351996
        },
        "miles": {
            "estimated_diameter_min": 0.0081415287,
            "estimated_diameter_max": 0.0182050116
        },
        "feet": {
            "estimated_diameter_min": 42.9872861003,
            "estimated_diameter_max": 96.1224938884
        }
    },
    "is_potentially_hazardous_asteroid": false,
    "close_approach_data": [
        {
            "close_approach_date": "1977-07-20",
            "close_approach_date_full": "1977-Jul-20 15:00",
            "epoch_date_close_approach": 238258800000,
            "relative_velocity": {
                "kilometers_per_second": "11.8214434316",
                "kilometers_per_hour": "42557.1963537233",
                "miles_per_hour": "26443.3868121232"
            },
            "miss_distance": {
                "astronomical": "0.2032281763",
                "lunar": "79.0557605807",
                "kilometers": "30402502.298464481",
                "miles": "18891238.9298765978"
            },
            "orbiting_body": "Earth"
        },
        {
            "close_approach_date": "1984-11-18",
            "close_approach_date_full": "1984-Nov-18 13:28",
            "epoch_date_close_approach": 469632480000,
            "relative_velocity": {
                "kilometers_per_second": "9.93284508",
                "kilometers_per_hour": "35758.24228814",
                "miles_per_hour": "22218.781159539"
            },
            "miss_distance": {
                "astronomical": "0.087164785",
                "lunar": "33.907101365",
                "kilometers": "13039666.17500795",
                "miles": "8102472.84449171"
            },
            "orbiting_body": "Mars"
        },
        {
            "close_approach_date": "2020-04-05",
            "close_approach_date_full": "2020-Apr-05 00:09",
            "epoch_date_close_approach": 1586045340000,
            "relative_velocity": {
                "kilometers_per_second": "9.7990662236",
                "kilometers_per_hour": "35276.6384051095",
                "miles_per_hour": "21919.5312356637"
            },
            "miss_distance": {
                "astronomical": "0.006194025",
                "lunar": "2.409475725",
                "kilometers": "926612.94672675",
                "miles": "575770.58625915"
            },
            "orbiting_body": "Moon"
        },
        {
            "close_approach_date": "2020-04-05",
            "close_approach_date_full": "2020-Apr-05 10:55",
            "epoch_date_close_approach": 1586084100000,
            "relative_velocity": {
                "kilometers_per_second": "9.5058619235",
                "kilometers_per_hour": "34221.1029246086",
                "miles_per_hour": "21263.6625366825"
            },
            "miss_distance": {
                "astronomical": "0.0057747018",
                "lunar": "2.2463590002",
                "kilometers": "863883.089165166",
                "miles": "536792.0602286508"
            },
            "orbiting_body": "Earth"
        }
    ],
    "orbital_data": {
        "orbit_id": "3",
        "orbit_determination_date": "2020-04-08 06:20:52",
        "first_observation_date": "2020-04-03",
        "last_observation_date": "2020-04-05",
        "data_arc_in_days": 2,
        "observations_used": 30,
        "orbit_uncertainty": "7",
        "minimum_orbit_intersection": ".00506897",
        "jupiter_tisserand_invariant": "4.492",
        "epoch_osculation": "2459000.5",
        "eccentricity": ".3724825590899758",
        "semi_major_axis": "1.480385247897958",
        "inclination": "9.199152002146686",
        "ascending_node_longitude": "16.80824169083542",
        "orbital_period": "657.9010051101668",
        "perihelion_distance": ".9289675623218783",
        "perihelion_argument": "220.2551509971179",
        "aphelion_distance": "2.031802933474038",
        "perihelion_time": "2458978.624120123826",
        "mean_anomaly": "11.97036741736519",
        "mean_motion": ".5471947864553228",
        "equinox": "J2000",
        "orbit_class": {
            "orbit_class_type": "APO",
            "orbit_class_description": "Near-Earth asteroid orbits which cross the Earth’s orbit similar to that of 1862 Apollo",
            "orbit_class_range": "a (semi-major axis) > 1.0 AU; q (perihelion) < 1.017 AU"
        }
    },
    "is_sentry_object": false
}